NORAD_CAT_ID,OBJECT_NAME,OBJECT_TYPE,EPOCH,MEAN_MOTION,ECCENTRICITY,INCLINATION,RA_OF_ASC_NODE,ARG_OF_PERICENTER,MEAN_ANOMALY,BSTAR,MEAN_MOTION_DOT,MEAN_MOTION_DDOT,TLE_LINE0,TLE_LINE1,TLE_LINE2,SEMIMAJOR_AXIS,PERIOD,APOGEE,PERIGEE,DECAYED
53390.0,STARLINK-4517,PAYLOAD,2023-12-21 14:20:04,15.08839824,0.0001285,53.2151,156.2768,81.6019,278.5118,5.4207e-05,5.75e-06,0.0,0 STARLINK-4517,1 53390U 22097C   23355.59727067  .00000575  00000-0  54207-4 0  9990,2 53390  53.2151 156.2768 0001285  81.6019 278.5118 15.08839824 76671,6917.881,95.438,540.635,538.857,0.0
53390.0,STARLINK-4517,PAYLOAD,2023-12-21 15:55:27,15.0884019,0.0001262,53.2156,155.9777,90.9615,269.1522,4.6958e-05,4.6e-06,0.0,0 STARLINK-4517,1 53390U 22097C   23355.66350987  .00000460  00000-0  46958-4 0  9998,2 53390  53.2156 155.9777 0001262  90.9615 269.1522 15.08840190 76686,6917.88,95.438,540.618,538.872,0.0
53390.0,STARLINK-4517,PAYLOAD,2023-12-22 14:10:51,15.08839362,0.0001322,53.2163,151.8142,96.2641,263.8501,7.6281e-05,9.26e-06,0.0,0 STARLINK-4517,1 53390U 22097C   23356.59087034  .00000926  00000-0  76281-4 0  9990,2 53390  53.2163 151.8142 0001322  96.2641 263.8501 15.08839362 76823,6917.882,95.438,540.662,538.833,0.0
53390.0,STARLINK-4517,PAYLOAD,2023-12-22 15:46:14,15.08840222,0.0001288,53.2161,151.5173,92.3141,267.7998,8.0531e-05,9.94e-06,0.0,0 STARLINK-4517,1 53390U 22097C   23356.65710985  .00000994  00000-0  80531-4 0  9993,2 53390  53.2161 151.5173 0001288  92.3141 267.7998 15.08840222 76038,6917.88,95.438,540.636,538.854,0.0
53390.0,STARLINK-4517,PAYLOAD,2023-12-23 14:01:38,15.08839453,0.0001284,53.2164,147.3545,85.5019,274.612,6.7903e-05,7.93e-06,0.0,0 STARLINK-4517,1 53390U 22097C   23357.58447213  .00000793  00000-0  67903-4 0  9992,2 53390  53.2164 147.3545 0001284  85.5019 274.6120 15.08839453 76972,6917.882,95.438,540.635,538.859,0.0
53390.0,STARLINK-4517,PAYLOAD,2023-12-23 17:12:24,15.08839523,0.000128,53.2165,146.7597,85.0772,275.0366,6.2239e-05,7.03e-06,0.0,0 STARLINK-4517,1 53390U 22097C   23357.71695211  .00000703  00000-0  62239-4 0  9998,2 53390  53.2165 146.7597 0001280  85.0772 275.0366 15.08839523 76199,6917.882,95.438,540.632,538.861,0.0
53390.0,STARLINK-4517,PAYLOAD,2023-12-24 13:52:25,15.08838233,0.0001275,53.2164,142.8947,79.8635,280.2501,5.4069e-05,5.73e-06,0.0,0 STARLINK-4517,1 53390U 22097C   23358.57807470  .00000573  00000-0  54069-4 0  9992,2 53390  53.2164 142.8947 0001275  79.8635 280.2501 15.08838233 77127,6917.886,95.438,540.633,538.869,0.0
53390.0,STARLINK-4517,PAYLOAD,2023-12-24 15:27:48,15.08839841,0.0001275,53.2162,142.5972,81.2532,278.8605,6.6394e-05,7.69e-06,0.0,0 STARLINK-4517,1 53390U 22097C   23358.64431328  .00000769  00000-0  66394-4 0  9996,2 53390  53.2162 142.5972 0001275  81.2532 278.8605 15.08839841 77138,6917.881,95.438,540.628,538.864,0.0
53390.0,STARLINK-4517,PAYLOAD,2023-12-25 08:57:03,15.08836914,0.0001232,53.2158,139.3289,76.8905,283.2224,7.7371e-05,9.44e-06,0.0,0 STARLINK-4517,1 53390U 22097C   23359.37295596  .00000944  00000-0  77371-4 0  9994,2 53390  53.2158 139.3289 0001232  76.8905 283.2224 15.08836914 76443,6917.89,95.438,540.607,538.903,0.0
53390.0,STARLINK-4517,PAYLOAD,2023-12-25 13:43:12,15.08838359,0.0001244,53.2159,138.4361,81.0955,279.0178,6.4452e-05,7.38e-06,0.0,0 STARLINK-4517,1 53390U 22097C   23359.57167559  .00000738  00000-0  64452-4 0  9990,2 53390  53.2159 138.4361 0001244  81.0955 279.0178 15.08838359 77279,6917.885,95.438,540.611,538.89,0.0
53390.0,STARLINK-4517,PAYLOAD,2023-12-25 16:53:58,15.08841032,0.0001266,53.216,137.8408,82.3046,277.809,8.653e-05,1.09e-05,0.0,0 STARLINK-4517,1 53390U 22097C   23359.70415334  .00001090  00000-0  86530-4 0  9995,2 53390  53.2160 137.8408 0001266  82.3046 277.8090 15.08841032 77298,6917.877,95.437,540.618,538.866,0.0
53390.0,STARLINK-4517,PAYLOAD,2023-12-26 13:34:00,15.08837331,0.0001256,53.2157,133.9756,78.3298,281.7835,4.0289e-05,3.53e-06,0.0,0 STARLINK-4517,1 53390U 22097C   23360.56527858  .00000353  00000-0  40289-4 0  9998,2 53390  53.2157 133.9756 0001256  78.3298 281.7835 15.08837331 77423,6917.889,95.438,540.622,538.885,0.0
53390.0,STARLINK-4517,PAYLOAD,2023-12-26 16:44:46,15.08833478,0.000132,53.216,133.3809,73.6791,286.4346,0.00014374,2e-05,0.0,0 STARLINK-4517,1 53390U 22097C   23360.69775851  .00002000  00000-0  14374-3 0  9996,2 53390  53.2160 133.3809 0001320  73.6791 286.4346 15.08833478 76648,6917.9,95.438,540.678,538.852,0.0
53390.0,STARLINK-4517,PAYLOAD,2023-12-27 13:24:47,15.08839774,0.0001165,53.2159,129.5152,86.4098,273.7027,6.2075e-05,7e-06,0.0,0 STARLINK-4517,1 53390U 22097C   23361.55887754  .00000700  00000-0  62075-4 0  9995,2 53390  53.2159 129.5152 0001165  86.4098 273.7027 15.08839774 77576,6917.881,95.438,540.552,538.94,0.0
53390.0,STARLINK-4517,PAYLOAD,2023-12-27 15:00:10,15.0884133,0.0001223,53.2158,129.2178,78.2485,281.8644,7.0111e-05,8.28e-06,0.0,0 STARLINK-4517,1 53390U 22097C   23361.62511675  .00000828  00000-0  70111-4 0  9990,2 53390  53.2158 129.2178 0001223  78.2485 281.8644 15.08841330 77581,6917.876,95.437,540.587,538.895,0.0
53390.0,STARLINK-4517,PAYLOAD,2023-12-28 11:40:10,15.08869615,0.0001129,53.2156,125.3528,70.3718,289.7396,-0.00034299,-5.747e-05,0.0,0 STARLINK-4517,1 53390U 22097C   23362.48623220 -.00005747  00000-0 -34299-3 0  9998,2 53390  53.2156 125.3528 0001129  70.3718 289.7396 15.08869615 76915,6917.79,95.436,540.436,538.874,0.0
53390.0,STARLINK-4517,PAYLOAD,2023-12-28 14:50:56,15.08887913,0.0001161,53.2157,124.7582,67.2012,292.9102,-0.00056404,-9.265e-05,0.0,0 STARLINK-4517,1 53390U 22097C   23362.61870452 -.00009265  00000-0 -56404-3 0  9995,2 53390  53.2157 124.7582 0001161  67.2012 292.9102 15.08887913 77730,6917.734,95.435,540.402,538.796,0.0
53390.0,STARLINK-4517,PAYLOAD,2023-12-29 11:30:58,15.0883844,0.0001417,53.2173,120.8926,90.3279,269.7875,2.5686e-05,1.21e-06,0.0,0 STARLINK-4517,1 53390U 22097C   23363.47984026  .00000121  00000-0  25686-4 0  9992,2 53390  53.2173 120.8926 0001417  90.3279 269.7875 15.08838440 77069,6917.885,95.438,540.73,538.77,0.0
53390.0,STARLINK-4517,PAYLOAD,2023-12-29 14:41:44,15.08839713,0.0001445,53.2175,120.2978,93.269,266.8468,3.2218e-05,2.25e-06,0.0,0 STARLINK-4517,1 53390U 22097C   23363.61231883  .00000225  00000-0  32218-4 0  9998,2 53390  53.2175 120.2978 0001445  93.2690 266.8468 15.08839713 77882,6917.881,95.438,540.746,538.747,0.0
53390.0,STARLINK-4517,PAYLOAD,2023-12-30 14:32:30,15.08844405,0.0001488,53.2175,115.8371,97.7884,262.3278,7.1456e-05,8.5e-06,0.0,0 STARLINK-4517,1 53390U 22097C   23364.60591406  .00000850  00000-0  71456-4 0  9999,2 53390  53.2175 115.8371 0001488  97.7884 262.3278 15.08844405 78032,6917.867,95.437,540.761,538.703,0.0
53390.0,STARLINK-4517,PAYLOAD,2023-12-31 11:12:32,15.08835123,0.0001554,53.2172,111.9712,104.1286,255.9879,8.1969e-06,-1.58e-06,0.0,0 STARLINK-4517,1 53390U 22097C   23365.46704369 -.00000158  00000-0  81969-5 0  9991,2 53390  53.2172 111.9712 0001554 104.1286 255.9879 15.08835123 77365,6917.895,95.438,540.835,538.685,0.0
53390.0,STARLINK-4517,PAYLOAD,2023-12-31 12:47:55,15.08835074,0.0001522,53.217,111.6695,102.9073,257.2089,4.1248e-06,-2.22e-06,0.0,0 STARLINK-4517,1 53390U 22097C   23365.53328349 -.00000222  00000-0  41248-5 0  9997,2 53390  53.2170 111.6695 0001522 102.9073 257.2089 15.08835074 78178,6917.895,95.438,540.813,538.708,0.0
53390.0,STARLINK-4517,PAYLOAD,2024-01-01 14:14:05,15.08843735,0.0001443,53.2171,106.9128,98.0493,262.0663,3.1506e-05,2.14e-06,0.0,0 STARLINK-4517,1 53390U 22097C   24001.59311970  .00000214  00000-0  31506-4 0  9998,2 53390  53.2171 106.9128 0001443  98.0493 262.0663 15.08843735 78333,6917.869,95.437,540.732,538.736,0.0
53390.0,STARLINK-4517,PAYLOAD,2024-01-01 15:49:28,15.08843946,0.0001461,53.2169,106.6151,99.0453,261.0705,3.3181e-05,2.4e-06,0.0,0 STARLINK-4517,1 53390U 22097C   24001.65935941  .00000240  00000-0  33181-4 0  9995,2 53390  53.2169 106.6151 0001461  99.0453 261.0705 15.08843946 78341,6917.868,95.437,540.744,538.723,0.0
53390.0,STARLINK-4517,PAYLOAD,2024-01-02 10:54:06,15.08837582,0.0001394,53.2169,103.0481,92.1784,267.9368,7.3027e-05,8.74e-06,0.0,0 STARLINK-4517,1 53390U 22097C   24002.45424396  .00000874  00000-0  73027-4 0  9997,2 53390  53.2169 103.0481 0001394  92.1784 267.9368 15.08837582 77667,6917.888,95.438,540.717,538.788,0.0
53390.0,STARLINK-4517,PAYLOAD,2024-01-02 14:04:53,15.08817597,0.0001501,53.2168,102.4525,78.1605,281.9555,0.00042272,6.442e-05,0.0,0 STARLINK-4517,1 53390U 22097C   24002.58672743  .00006442  00000-0  42272-3 0  9996,2 53390  53.2168 102.4525 0001501  78.1605 281.9555 15.08817597 78483,6917.949,95.439,540.852,538.775,0.0
53390.0,STARLINK-4517,PAYLOAD,2024-01-02 15:40:15,15.0884292,0.0001396,53.2169,102.1552,85.3112,274.804,0.00011732,1.58e-05,0.0,0 STARLINK-4517,1 53390U 22097C   24002.65295972  .00001580  00000-0  11732-3 0  9994,2 53390  53.2169 102.1552 0001396  85.3112 274.8040 15.08842920 78495,6917.871,95.437,540.702,538.771,0.0
53390.0,STARLINK-4517,PAYLOAD,2024-01-03 12:20:17,15.08839555,0.0001385,53.216,98.2893,107.4985,252.6159,-6.9925e-06,-3.99e-06,0.0,0 STARLINK-4517,1 53390U 22097C   24003.51408630 -.00000399  00000-0 -69925-5 0  9995,2 53390  53.2160  98.2893 0001385 107.4985 252.6159 15.08839555 77822,6917.882,95.438,540.705,538.789,0.0
53390.0,STARLINK-4517,PAYLOAD,2024-01-03 13:55:40,15.08840781,0.0001392,53.2166,97.9935,86.2828,273.8323,1.1557e-05,-1.04e-06,0.0,0 STARLINK-4517,1 53390U 22097C   24003.58032662 -.00000104  00000-0  11557-4 0  9990,2 53390  53.2166  97.9935 0001392  86.2828 273.8323 15.08840781 78630,6917.878,95.438,540.706,538.78,0.0
53390.0,STARLINK-4517,PAYLOAD,2024-01-04 12:11:03,15.08848641,0.0001412,53.2164,93.8311,79.8022,280.313,5.0575e-05,5.17e-06,0.0,0 STARLINK-4517,1 53390U 22097C   24004.50768067  .00000517  00000-0  50575-4 0  9998,2 53390  53.2164  93.8311 0001412  79.8022 280.3130 15.08848641 77976,6917.854,95.437,540.696,538.742,0.0
